NORAD_CAT_ID,OBJECT_NAME,OBJECT_TYPE,EPOCH,MEAN_MOTION,ECCENTRICITY,INCLINATION,RA_OF_ASC_NODE,ARG_OF_PERICENTER,MEAN_ANOMALY,BSTAR,MEAN_MOTION_DOT,MEAN_MOTION_DDOT,TLE_LINE0,TLE_LINE1,TLE_LINE2,SEMIMAJOR_AXIS,PERIOD,APOGEE,PERIGEE,DECAYED
49740.0,STARLINK-3226,PAYLOAD,2023-05-01 14:30:47,15.08839897,0.0001387,53.2172,151.6805,88.0298,272.0853,0.00012789,1.748e-05,0.0,0 STARLINK-3226,1 49740U 21115S   23121.60471422  .00001748  00000-0  12789-3 0  9999,2 49740  53.2172 151.6805 0001387  88.0298 272.0853 15.08839897 79175,6917.881,95.438,540.705,538.786,0.0
49740.0,STARLINK-3226,PAYLOAD,2023-05-02 08:00:01,15.08848494,0.0001378,53.2173,148.4094,89.2642,270.8508,0.00014113,1.959e-05,0.0,0 STARLINK-3226,1 49740U 21115S   23122.33334841  .00001959  00000-0  14113-3 0  9990,2 49740  53.2173 148.4094 0001378  89.2642 270.8508 15.08848494 78171,6917.854,95.437,540.673,538.766,0.0
49740.0,STARLINK-3226,PAYLOAD,2023-05-03 04:40:02,15.08840552,0.0001223,53.2162,144.5454,85.9776,274.1356,5.2381e-05,5.46e-06,0.0,0 STARLINK-3226,1 49740U 21115S   23123.19447521  .00000546  00000-0  52381-4 0  9996,2 49740  53.2162 144.5454 0001223  85.9776 274.1356 15.08840552 79419,6917.879,95.438,540.59,538.898,0.0
49740.0,STARLINK-3226,PAYLOAD,2023-05-03 11:01:35,15.08840047,0.0001215,53.2162,143.3562,82.6916,277.4214,2.9398e-05,1.8e-06,0.0,0 STARLINK-3226,1 49740U 21115S   23123.45943520  .00000180  00000-0  29398-4 0  9991,2 49740  53.2162 143.3562 0001215  82.6916 277.4214 15.08840047 78346,6917.88,95.438,540.586,538.905,0.0
49740.0,STARLINK-3226,PAYLOAD,2023-05-04 10:52:21,15.08844555,0.0001233,53.2162,138.8958,82.2643,277.849,8.6243e-05,1.085e-05,0.0,0 STARLINK-3226,1 49740U 21115S   23124.45302955  .00001085  00000-0  86243-4 0  9990,2 49740  53.2162 138.8958 0001233  82.2643 277.8490 15.08844555 79605,6917.866,95.437,540.584,538.878,0.0
49740.0,STARLINK-3226,PAYLOAD,2023-05-05 07:32:22,15.08837466,0.0001256,53.2163,135.0302,81.975,278.1384,7.358e-05,8.83e-06,0.0,0 STARLINK-3226,1 49740U 21115S   23125.31415478  .00000883  00000-0  73580-4 0  9996,2 49740  53.2163 135.0302 0001256  81.9750 278.1384 15.08837466 79731,6917.888,95.438,540.622,538.884,0.0
49740.0,STARLINK-3226,PAYLOAD,2023-05-05 17:04:41,15.08837546,0.0001248,53.2162,133.2456,81.4287,278.6846,5.5766e-05,6e-06,0.0,0 STARLINK-3226,1 49740U 21115S   23125.71159568  .00000600  00000-0  55766-4 0  9998,2 49740  53.2162 133.2456 0001248  81.4287 278.6846 15.08837546 78681,6917.888,95.438,540.616,538.89,0.0
49740.0,STARLINK-3226,PAYLOAD,2023-05-06 10:33:56,15.0884228,0.0001252,53.2162,129.9746,80.7341,279.3792,3.9813e-05,3.46e-06,0.0,0 STARLINK-3226,1 49740U 21115S   23126.44023450  .00000346  00000-0  39813-4 0  9991,2 49740  53.2162 129.9746 0001252  80.7341 279.3792 15.08842280 78794,6917.873,95.437,540.605,538.872,0.0
49740.0,STARLINK-3226,PAYLOAD,2023-05-06 16:55:28,15.08841743,0.0001263,53.2162,128.7851,79.5731,280.5404,4.654e-05,4.53e-06,0.0,0 STARLINK-3226,1 49740U 21115S   23126.70519459  .00000453  00000-0  46540-4 0  9993,2 49740  53.2162 128.7851 0001263  79.5731 280.5404 15.08841743 79944,6917.875,95.437,540.614,538.866,0.0
49740.0,STARLINK-3226,PAYLOAD,2023-05-07 07:13:56,15.08842838,0.0001203,53.2159,126.1088,87.5359,272.5771,8.3362e-05,1.039e-05,0.0,0 STARLINK-3226,1 49740U 21115S   23127.30135281  .00001039  00000-0  83362-4 0  9991,2 49740  53.2159 126.1088 0001203  87.5359 272.5771 15.08842838 78924,6917.872,95.437,540.569,538.904,0.0
49740.0,STARLINK-3226,PAYLOAD,2023-05-07 16:46:16,15.08838413,0.0001192,53.216,124.3246,86.2657,273.8471,5.3275e-05,5.6e-06,0.0,0 STARLINK-3226,1 49740U 21115S   23127.69879661  .00000560  00000-0  53275-4 0  9998,2 49740  53.2160 124.3246 0001192  86.2657 273.8471 15.08838413 78987,6917.885,95.438,540.575,538.926,0.0
49740.0,STARLINK-3226,PAYLOAD,2023-05-08 03:53:58,15.08831689,0.0001212,53.2159,122.2433,86.9202,273.1929,1.2305e-05,-9.2e-07,0.0,0 STARLINK-3226,1 49740U 21115S   23128.16248367 -.00000092  00000-0  12305-4 0  9994,2 49740  53.2159 122.2433 0001212  86.9202 273.1929 15.08831689 80168,6917.906,95.438,540.609,538.932,0.0
49740.0,STARLINK-3226,PAYLOAD,2023-05-08 16:37:03,15.0883815,0.0001268,53.2162,119.8644,86.6353,273.4784,4.2363e-05,3.86e-06,0.0,0 STARLINK-3226,1 49740U 21115S   23128.69239973  .00000386  00000-0  42363-4 0  9997,2 49740  53.2162 119.8644 0001268  86.6353 273.4784 15.08838150 79130,6917.886,95.438,540.628,538.874,0.0
49740.0,STARLINK-3226,PAYLOAD,2023-05-09 06:55:31,15.0884549,0.000131,53.2161,117.1887,85.1811,274.9331,7.0975e-05,8.42e-06,0.0,0 STARLINK-3226,1 49740U 21115S   23129.28855433  .00000842  00000-0  70975-4 0  9995,2 49740  53.2161 117.1887 0001310  85.1811 274.9331 15.08845490 79229,6917.864,95.437,540.635,538.822,0.0
49740.0,STARLINK-3226,PAYLOAD,2023-05-10 09:57:04,15.08842885,0.0001368,53.2161,112.1346,85.1877,274.9272,0.00010098,1.32e-05,0.0,0 STARLINK-3226,1 49740U 21115S   23130.41463682  .00001320  00000-0  10098-3 0  9994,2 49740  53.2161 112.1346 0001368  85.1877 274.9272 15.08842885 79396,6917.872,95.437,540.683,538.79,0.0
49740.0,STARLINK-3226,PAYLOAD,2023-05-10 16:18:37,15.08834911,0.0001404,53.2169,110.942,93.1009,267.0144,2.1473e-05,5.4e-07,0.0,0 STARLINK-3226,1 49740U 21115S   23130.67960376  .00000054  00000-0  21473-4 0  9997,2 49740  53.2169 110.9420 0001404  93.1009 267.0144 15.08834911 80541,6917.896,95.438,540.732,538.79,0.0
49740.0,STARLINK-3226,PAYLOAD,2023-05-11 05:01:42,15.08844079,0.0001123,53.2165,108.5651,89.1757,270.9364,5.2377e-05,5.46e-06,0.0,0 STARLINK-3226,1 49740U 21115S   23131.20951656  .00000546  00000-0  52377-4 0  9991,2 49740  53.2165 108.5651 0001123  89.1757 270.9364 15.08844079 80621,6917.868,95.437,540.51,538.956,0.0
49740.0,STARLINK-3226,PAYLOAD,2023-05-12 04:52:30,15.08828541,0.0001094,53.2153,104.1074,82.9746,277.1371,1.6795e-05,-2.1e-07,0.0,0 STARLINK-3226,1 49740U 21115S   23132.20312975 -.00000021  00000-0  16795-4 0  9990,2 49740  53.2153 104.1074 0001094  82.9746 277.1371 15.08828541 80774,6917.915,95.438,540.537,539.024,0.0
49740.0,STARLINK-3226,PAYLOAD,2023-05-13 04:43:14,15.08870982,0.0001105,53.2167,99.6438,90.312,269.7999,0.00025977,3.852e-05,0.0,0 STARLINK-3226,1 49740U 21115S   23133.19669663  .00003852  00000-0  25977-3 0  9993,2 49740  53.2167  99.6438 0001105  90.3120 269.7999 15.08870982 80929,6917.786,95.436,540.415,538.886,0.0
49740.0,STARLINK-3226,PAYLOAD,2023-05-14 04:34:04,15.08832232,0.0001218,53.2173,95.1853,94.5539,265.5592,5.1424e-05,5.31e-06,0.0,0 STARLINK-3226,1 49740U 21115S   23134.19033139  .00000531  00000-0  51424-4 0  9995,2 49740  53.2173  95.1853 0001218  94.5539 265.5592 15.08832232 81079,6917.904,95.438,540.612,538.927,0.0
49740.0,STARLINK-3226,PAYLOAD,2023-05-15 01:14:05,15.08844031,0.0001163,53.2177,91.3188,99.8561,260.2562,-4.1263e-05,-9.45e-06,0.0,0 STARLINK-3226,1 49740U 21115S   23135.05144809 -.00000945  00000-0 -41263-4 0  9999,2 49740  53.2177  91.3188 0001163  99.8561 260.2562 15.08844031 81208,6917.868,95.437,540.538,538.929,0.0
49740.0,STARLINK-3226,PAYLOAD,2023-05-15 04:24:51,15.08843923,0.0001098,53.2172,90.7234,87.0723,273.0395,1.3348e-05,-7.5e-07,0.0,0 STARLINK-3226,1 49740U 21115S   23135.18392662 -.00000075  00000-0  13348-4 0  9991,2 49740  53.2172  90.7234 0001098  87.0723 273.0395 15.08843923 80118,6917.868,95.437,540.493,538.974,0.0
49740.0,STARLINK-3226,PAYLOAD,2023-05-15 13:57:09,15.08860235,0.0001173,53.2174,88.9384,78.7783,281.3341,-0.00018933,-3.301e-05,0.0,0 STARLINK-3226,1 49740U 21115S   23135.58135909 -.00003301  00000-0 -18933-3 0  9994,2 49740  53.2174  88.9384 0001173  78.7783 281.3341 15.08860235 81289,6917.819,95.436,540.495,538.872,0.0
49740.0,STARLINK-3226,PAYLOAD,2023-05-16 05:51:01,15.08838661,0.0001152,53.2176,85.9658,82.991,277.1213,7.4457e-05,8.97e-06,0.0,0 STARLINK-3226,1 49740U 21115S   23136.24377014  .00000897  00000-0  74457-4 0  9992,2 49740  53.2176  85.9658 0001152  82.9910 277.1213 15.08838661 81388,6917.884,95.438,540.546,538.953,0.0
49740.0,STARLINK-3226,PAYLOAD,2023-05-17 05:41:48,15.08849119,0.000121,53.2178,81.5056,84.3152,275.7978,8.4378e-05,1.056e-05,0.0,0 STARLINK-3226,1 49740U 21115S   23137.23736219  .00001056  00000-0  84378-4 0  9999,2 49740  53.2178  81.5056 0001210  84.3152 275.7978 15.08849119 81532,6917.853,95.437,540.555,538.88,0.0
49740.0,STARLINK-3226,PAYLOAD,2023-05-18 02:21:50,15.08830631,0.0001274,53.2185,77.6359,91.3898,268.724,-5.4103e-06,-3.74e-06,0.0,0 STARLINK-3226,1 49740U 21115S   23138.09849666 -.00000374  00000-0 -54103-5 0  9993,2 49740  53.2185  77.6359 0001274  91.3898 268.7240 15.08830631 81664,6917.909,95.438,540.655,538.893,0.0
49740.0,STARLINK-3226,PAYLOAD,2023-05-18 05:32:36,15.08835508,0.000122,53.2188,77.0405,96.6142,263.499,-1.2065e-05,-4.8e-06,0.0,0 STARLINK-3226,1 49740U 21115S   23138.23097357 -.00000480  00000-0 -12065-4 0  9999,2 49740  53.2188  77.0405 0001220  96.6142 263.4990 15.08835508 80575,6917.894,95.438,540.603,538.915,0.0
49740.0,STARLINK-3226,PAYLOAD,2023-05-19 02:12:36,15.0885024,0.0001218,53.2184,73.1762,91.7146,268.3986,7.5902e-06,-1.67e-06,0.0,0 STARLINK-3226,1 49740U 21115S   23139.09208372 -.00000167  00000-0  75902-5 0  9996,2 49740  53.2184  73.1762 0001218  91.7146 268.3986 15.08850240 81818,6917.849,95.437,540.557,538.871,0.0
49740.0,STARLINK-3226,PAYLOAD,2023-05-19 05:23:22,15.08846547,0.0001142,53.2183,72.582,90.7882,269.3241,6.7698e-05,7.9e-06,0.0,0 STARLINK-3226,1 49740U 21115S   23139.22456353  .00000790  00000-0  67698-4 0  9998,2 49740  53.2183  72.5820 0001142  90.7882 269.3241 15.08846547 80726,6917.86,95.437,540.515,538.935,0.0
49740.0,STARLINK-3226,PAYLOAD,2023-05-20 02:03:23,15.08839358,0.000111,53.2181,68.7175,88.7054,271.4066,5.5875e-05,6.02e-06,0.0,0 STARLINK-3226,1 49740U 21115S   23140.08568952  .00000602  00000-0  55875-4 0  9999,2 49740  53.2181  68.7175 0001110  88.7054 271.4066 15.08839358 81965,6917.882,95.438,540.515,538.979,0.0
